OSCAR 7 (AO-7)          
1 07530U 74089B   24100.46414466 -.00000054  00000+0 -46764-4 0  9996
2 07530 101.9777  94.4729 0011985 214.2363 313.9634 12.53673959260422
PHASE 3B (AO-10)        
1 14129U 83058B   24098.96252891  .00000265  00000+0  00000+0 0  9997
2 14129  27.4610 350.2049 6033952 258.7648  31.7163  2.05863284279018
UOSAT 2 (UO-11)         
1 14781U 84021B   24100.43191694  .00001755  00000+0  20517-3 0  9995
2 14781  97.6995  71.8122 0006799 312.3203  47.7436 14.86318036138276
LUSAT (LO-19)           
1 20442U 90005G   24099.91429855  .00000234  00000+0  10166-3 0  9998
2 20442  98.8804  88.3735 0012326  33.6679 326.5285 14.33480632787910
EYESAT A (AO-27)        
1 22825U 93061C   24100.43081424  .00000140  00000+0  71310-4 0  9991
2 22825  98.7965 152.4660 0007306 281.0762  78.9598 14.30453855592786
ITAMSAT (IO-26)         
1 22826U 93061D   24100.07796026  .00000168  00000+0  81490-4 0  9993
2 22826  98.7912 151.9715 0007837 265.1718  94.8569 14.30830865593019
RADIO ROSTO (RS-15)     
1 23439U 94085A   24100.55662094 -.00000004  00000+0  10853-2 0  9994
2 23439  64.8150 154.7594 0152116 156.7596 204.0300 11.27576297205853
JAS-2 (FO-29)           
1 24278U 96046B   24100.57813704  .00000026  00000+0  62496-4 0  9998
2 24278  98.5754  44.2385 0350340   6.1557 354.3724 13.53179543365157
TECHSAT 1B (GO-32)      
1 25397U 98043D   24100.38019250  .00000112  00000+0  68690-4 0  9991
2 25397  98.9155  66.1021 0001708  38.0842 322.0457 14.24012706337623
ISS (ZARYA)             
1 25544U 98067A   24100.57837436  .00012133  00000+0  21993-3 0  9996
2 25544  51.6397 295.5767 0004852  51.9778   3.8711 15.50034484447908
PCSAT (NO-44)           
1 26931U 01043C   24100.37331500  .00000172  00000+0  96593-4 0  9993
2 26931  67.0499 149.3231 0006003 281.5049  78.5378 14.31169729176105
SAUDISAT 1C (SO-50)     
1 27607U 02058C   24100.35809146  .00001500  00000+0  22198-3 0  9990
2 27607  64.5536  73.0473 0032740 144.9815 215.3451 14.78583900146147
CUTE-1 (CO-55)          
1 27844U 03031E   24100.47487053  .00000428  00000+0  20877-3 0  9997
2 27844  98.6800 108.4608 0009446 351.6958   8.4062 14.23153087 78048
CUBESAT XI-IV (CO-57)   
1 27848U 03031J   24100.45268380  .00000364  00000+0  18227-3 0  9994
2 27848  98.6830 108.7214 0009684   7.7391 352.3935 14.22610306 77764
MOZHAYETS 4 (RS-22)     
1 27939U 03042A   24100.59210830  .00001532  00000+0  26642-3 0  9997
2 27939  98.2818 255.7571 0011019 277.0729 150.7730 14.69582452 98079
CUBESAT XI-V            
1 28895U 05043F   24100.17045317  .00002102  00000+0  38159-3 0  9992
2 28895  98.1901 235.9650 0015523 211.7166 148.3104 14.67209227984330
CUTE-1.7+APD II (CO-65) 
1 32785U 08021C   24100.46992349  .00004226  00000+0  38483-3 0  9991
2 32785  97.7499  66.4519 0010793 184.2017 175.9115 14.95661457865204
SEEDS II (CO-66)        
1 32791U 08021J   24100.42970275  .00006755  00000+0  51925-3 0  9993
2 32791  97.6865  72.1024 0006824 146.7749 213.3905 15.02031298866193
YUBILEINY (RS-30)       
1 32953U 08025A   24100.50215137  .00000037  00000+0  19725-3 0  9994
2 32953  82.5000 132.2136 0018147 253.2684 106.6404 12.43138472720452
KKS-1 (KISEKI)          
1 33499U 09002H   24100.52935607  .00001725  00000+0  24440-3 0  9994
2 33499  98.1451   1.3834 0008638   2.1080 358.0165 14.78359292818402
SWISSCUBE               
1 35932U 09051B   24100.44298965  .00001166  00000+0  26004-3 0  9999
2 35932  98.4809 342.3648 0007498 161.0092 199.1388 14.58746198772535
BEESAT-1                
1 35933U 09051C   24100.16163689  .00001021  00000+0  23019-3 0  9996
2 35933  98.4737 343.0745 0005547 171.2518 188.8778 14.58522299772566
ITUPSAT1                
1 35935U 09051E   24100.47061003  .00000926  00000+0  21434-3 0  9991
2 35935  98.4835 343.2094 0007656 180.4371 179.6822 14.57502740772250
XIWANG-1 (HOPE-1)       
1 36122U 09072B   24100.40585203 -.00000043  00000+0  22606-5 0  9994
2 36122 100.2878  60.5054 0006822 261.0184  99.0157 13.16398155687905
JUGNU                   
1 37839U 11058B   24100.42630788  .00000532  00000+0  13964-3 0  9995
2 37839  19.9606 119.2445 0018542 257.8124 244.2285 14.13158629645875
SRMSAT                  
1 37841U 11058D   24100.53119821  .00000497  00000+0  12715-3 0  9993
2 37841  19.9714 212.0214 0011978  59.8801  31.8555 14.11071067644857
M-CUBED & EXP-1 PRIME   
1 37855U 11061F   24100.33347728  .00100802  00000+0  12358-2 0  9992
2 37855 101.6878 242.0203 0065206 197.4188 162.4815 15.57386856682244
STRAND-1                
1 39090U 13009E   24100.50628691  .00000392  00000+0  14952-3 0  9995
2 39090  98.3831 290.6829 0010080  97.4424 262.7908 14.35965572582387
ZACUBE-1 (TSHEPISOSAT)  
1 39417U 13066B   24100.43135697  .00005624  00000+0  60028-3 0  9990
2 39417  97.7290  58.0188 0052744  29.9179 330.5035 14.88182063561359
GOMX-1                  
1 39430U 13066Q   24100.63157069  .00002412  00000+0  40848-3 0  9994
2 39430  97.7424 339.1545 0142713 110.4776 251.1813 14.63608038552831
CUBEBUG-2 (LO-74)       
1 39440U 13066AA  24100.55465958  .00003544  00000+0  42947-3 0  9994
2 39440  97.8089  45.7757 0072310 137.2104 223.4770 14.82382883558166
FUNCUBE-1 (AO-73)       
1 39444U 13066AE  24100.11370541  .00007540  00000+0  75468-3 0  9997
2 39444  97.7145  60.6702 0049828  13.2856 346.9661 14.90757994559814
UWE-3                   
1 39446U 13066AG  24100.41832700  .00004571  00000+0  52211-3 0  9994
2 39446  97.7758  51.7015 0063647  85.5581 275.2902 14.85064731558495
SPROUT                  
1 39770U 14029E   24100.35574337  .00060526  00000+0  21619-2 0  9995
2 39770  98.0086 246.7350 0002312 308.9364  51.1667 15.28617442537075
UNISAT-6                
1 40012U 14033C   24100.42981054  .00003703  00000+0  49458-3 0  9993
2 40012  97.6960 265.7194 0053944 168.4134 191.8333 14.79111427527674
DUCHIFAT-1              
1 40021U 14033M   24100.39957653  .00010017  00000+0  71191-3 0  9992
2 40021  98.0885  80.8408 0012223 344.9572  15.1287 15.04845784533774
QB50P1                  
1 40025U 14033R   24100.60062865  .00007101  00000+0  60123-3 0  9995
2 40025  98.0357  59.2029 0011187  31.8255 328.3640 14.98288180532605
KAITUO 1A               
1 40904U 15049F   24100.55148470  .00030922  00000+0  75112-3 0  9991
2 40904  97.4903 115.2369 0008576 183.3256 176.7935 15.40916356473857
2015-049G               
1 40905U 15049G   24100.54810348  .00009392  00000+0  35981-3 0  9998
2 40905  97.5254 109.0052 0010875 214.8605 145.1922 15.26699808473233
XW-2C                   
1 40906U 15049H   24100.51961547  .00022631  00000+0  60841-3 0  9998
2 40906  97.4842 115.7576 0009579 173.8471 186.2893 15.37862682473906
XW-2D                   
1 40907U 15049J   24100.56247013  .00031495  00000+0  70977-3 0  9998
2 40907  97.4792 117.6916 0008874 160.4852 199.6736 15.43166383474099
LILACSAT-2              
1 40908U 15049K   24100.52096532  .00007791  00000+0  31748-3 0  9998
2 40908  97.5272 108.8052 0011269 224.2231 135.8106 15.24693607473027
XW-2B                   
1 40911U 15049N   24100.55991577  .00030612  00000+0  70279-3 0  9998
2 40911  97.4768 117.8777 0008849 162.4240 197.7315 15.42617424473962
LAPAN-A2                
1 40931U 15052B   24100.24272061  .00001266  00000+0  84242-4 0  9999
2 40931   6.0024 125.2751 0013232 190.0609 169.9254 14.77724341461243
E-ST@R-II               
1 41459U 16025D   24100.46000945  .00266289  00000+0  15012-2 0  9995
2 41459  98.1312 343.7672 0039776 119.7587 240.7643 15.77308394438818
AIST-2D (RS-48)         
1 41465U 16026B   24100.15457753  .00952777  55973-3  87428-3 0  9990
2 41465  96.9263 336.5521 0005402 176.0095 339.1044 16.12550968446631
CAS-2T & KS-1Q          
1 41847U 16066G   24100.15522509  .00001352  00000+0  20609-3 0  9999
2 41847  98.4648 171.9630 0355587  25.3955 336.4244 14.40976075389553
ZHUHAI-1 02 (CAS-4B)    
1 42759U 17034B   24100.55481593  .00014879  00000+0  58687-3 0  9994
2 42759  43.0131 253.6410 0013605 258.4020 101.5304 15.25297592376915
ZHUHAI-1 01 (CAS-4A)    
1 42761U 17034D   24100.56171734  .00014932  00000+0  58663-3 0  9995
2 42761  43.0159 252.0001 0012623 263.6021  96.3392 15.25438429376919
MAX VALIER SAT          
1 42778U 17036P   24100.07876164  .00082176  00000+0  81981-3 0  9994
2 42778  97.1116 136.6756 0006981 110.2735 249.9277 15.65360672378696
RADFXSAT (FOX-1B)       
1 43017U 17073E   24100.13811850  .00007595  00000+0  48449-3 0  9994
2 43017  97.5885 338.1168 0216416 163.8771 196.9480 14.91598494345364
DIWATA-2B               
1 43678U 18084H   24100.60831563  .00001568  00000+0  14953-3 0  9992
2 43678  98.0627 256.6428 0008039 256.3127 103.7198 14.94857592296674
ES'HAIL 2               
1 43700U 18090A   24100.51913935  .00000136  00000+0  00000+0 0  9993
2 43700   0.0176 202.0551 0001118 195.8833  12.9892  1.00270468 19664
FOX-1CLIFF (AO-95)      
1 43770U 18099N   24100.09687734  .00006308  00000+0  45654-3 0  9992
2 43770  97.5541 159.4655 0013248 232.4536 127.5487 15.04279877292177
ITASAT                  
1 43786U 18099AE  24100.11966951  .00005800  00000+0  43386-3 0  9999
2 43786  97.5158 159.3652 0017498 225.3758 134.6041 15.03012161292199
JY1SAT (JO-97)          
1 43803U 18099AX  24100.42562157  .00006407  00000+0  44704-3 0  9992
2 43803  97.5279 160.6824 0011064 169.3415 190.8048 15.05666743292340
UWE-4                   
1 43880U 18111E   24100.28482247  .00007785  00000+0  51347-3 0  9998
2 43880  97.6171   6.5858 0015436 241.0244 118.9437 15.07650127289044
JAISAT-1                
1 44419U 19038F   24100.44321407  .00107654  00000+0  11528-2 0  9996
2 44419  97.6827 102.9668 0002843 341.3694  18.7459 15.63495455264353
DUCHIFAT-3              
1 44854U 19089C   24100.39129928  .00011295  00000+0  61853-3 0  9995
2 44854  36.9573 105.8820 0010039 242.5663 117.4063 15.13643064237833
TIANYAN 01              
1 44881U 19093C   24100.51769412  .00001226  00000+0  15548-3 0  9995
2 44881  97.8306 178.6312 0014492 182.0151 178.1007 14.83450613232866
